NORAD_CAT_ID,OBJECT_NAME,OBJECT_TYPE,EPOCH,MEAN_MOTION,ECCENTRICITY,INCLINATION,RA_OF_ASC_NODE,ARG_OF_PERICENTER,MEAN_ANOMALY,BSTAR,MEAN_MOTION_DOT,MEAN_MOTION_DDOT,TLE_LINE0,TLE_LINE1,TLE_LINE2,SEMIMAJOR_AXIS,PERIOD,APOGEE,PERIGEE,DECAYED
53719.0,STARLINK-4644,PAYLOAD,2023-01-30 23:02:32,15.11059396,0.0001768,53.2131,274.0334,89.0762,271.0434,0.00027856,4.421e-05,0.0,0 STARLINK-4644,1 53719U 22107V   23030.96010024  .00004421  00000-0  27856-3 0  9999,2 53719  53.2131 274.0334 0001768  89.0762 271.0434 15.11059396 23207,6911.105,95.297,534.192,531.748,0.0
53719.0,STARLINK-4644,PAYLOAD,2023-01-31 02:13:01,15.11063558,0.0001829,53.2134,273.4373,89.8318,270.2884,0.000297,4.734e-05,0.0,0 STARLINK-4644,1 53719U 22107V   23031.09238223  .00004734  00000-0  29700-3 0  9994,2 53719  53.2134 273.4373 0001829  89.8318 270.2884 15.11063558 23697,6911.092,95.297,534.221,531.693,0.0
53719.0,STARLINK-4644,PAYLOAD,2023-01-31 16:30:12,15.11090159,0.0001795,53.213,270.7556,90.4259,269.694,0.00021613,3.367e-05,0.0,0 STARLINK-4644,1 53719U 22107V   23031.68764649  .00003367  00000-0  21613-3 0  9991,2 53719  53.2130 270.7556 0001795  90.4259 269.6940 15.11090159 23311,6911.011,95.295,534.117,531.636,0.0
53719.0,STARLINK-4644,PAYLOAD,2023-01-31 22:51:10,15.11098973,0.0001798,53.2126,269.5642,91.8291,268.2908,0.00026744,4.238e-05,0.0,0 STARLINK-4644,1 53719U 22107V   23031.95220335  .00004238  00000-0  26744-3 0  9998,2 53719  53.2126 269.5642 0001798  91.8291 268.2908 15.11098973 23829,6910.984,95.295,534.092,531.607,0.0
53719.0,STARLINK-4644,PAYLOAD,2023-02-01 02:01:39,15.11103052,0.0001826,53.2126,268.9677,91.4372,268.683,0.0002835,4.511e-05,0.0,0 STARLINK-4644,1 53719U 22107V   23032.08448236  .00004511  00000-0  28350-3 0  9994,2 53719  53.2126 268.9677 0001826  91.4372 268.6830 15.11103052 23371,6910.972,95.295,534.099,531.575,0.0
53719.0,STARLINK-4644,PAYLOAD,2023-02-01 22:39:46,15.111338,0.0001812,53.2126,265.0941,93.8362,266.2838,0.0002436,3.837e-05,0.0,0 STARLINK-4644,1 53719U 22107V   23032.94428565  .00003837  00000-0  24360-3 0  9999,2 53719  53.2126 265.0941 0001812  93.8362 266.2838 15.11133800 23504,6910.878,95.293,533.995,531.491,0.0
53719.0,STARLINK-4644,PAYLOAD,2023-02-02 14:32:09,15.11154409,0.0001799,53.212,262.1133,93.001,267.1189,0.00030937,4.957e-05,0.0,0 STARLINK-4644,1 53719U 22107V   23033.60566105  .00004957  00000-0  30937-3 0  9997,2 53719  53.2120 262.1133 0001799  93.0010 267.1189 15.11154409 24075,6910.815,95.291,533.923,531.437,0.0
53719.0,STARLINK-4644,PAYLOAD,2023-02-03 00:03:34,15.11171622,0.0001807,53.2125,260.3255,93.2679,266.8521,0.00030415,4.871e-05,0.0,0 STARLINK-4644,1 53719U 22107V   23034.00248092  .00004871  00000-0  30415-3 0  9990,2 53719  53.2125 260.3255 0001807  93.2679 266.8521 15.11171622 23664,6910.763,95.29,533.876,531.379,0.0
53719.0,STARLINK-4644,PAYLOAD,2023-02-03 14:20:41,15.1118976,0.0001833,53.2116,257.6421,95.181,264.9392,0.00031046,4.98e-05,0.0,0 STARLINK-4644,1 53719U 22107V   23034.59770775  .00004980  00000-0  31046-3 0  9994,2 53719  53.2116 257.6421 0001833  95.1810 264.9392 15.11189760 23752,6910.707,95.289,533.839,531.306,0.0
53719.0,STARLINK-4644,PAYLOAD,2023-02-03 15:55:56,15.11198635,0.0001708,53.2121,257.3453,96.3512,263.7676,0.000244,3.851e-05,0.0,0 STARLINK-4644,1 53719U 22107V   23034.66384265  .00003851  00000-0  24400-3 0  9999,2 53719  53.2121 257.3453 0001708  96.3512 263.7676 15.11198635 24230,6910.68,95.289,533.726,531.365,0.0
53719.0,STARLINK-4644,PAYLOAD,2023-02-04 14:09:13,15.11228177,0.0001713,53.2113,253.1732,96.388,263.7308,0.00039302,6.392e-05,0.0,0 STARLINK-4644,1 53719U 22107V   23035.58973772  .00006392  00000-0  39302-3 0  9998,2 53719  53.2113 253.1732 0001713  96.3880 263.7308 15.11228177 23909,6910.59,95.287,533.639,531.272,0.0
53719.0,STARLINK-4644,PAYLOAD,2023-02-04 22:05:23,15.11246951,0.0001771,53.2108,251.6837,94.2713,265.8482,0.00066492,0.00011031,0.0,0 STARLINK-4644,1 53719U 22107V   23035.92040974  .00011031  00000-0  66492-3 0  9991,2 53719  53.2108 251.6837 0001771  94.2713 265.8482 15.11246951 24422,6910.533,95.286,533.622,531.174,0.0
53719.0,STARLINK-4644,PAYLOAD,2023-02-04 23:40:37,15.11251987,0.0001769,53.2105,251.3857,94.0886,266.031,0.00074328,0.00012369,0.0,0 STARLINK-4644,1 53719U 22107V   23035.98654368  .00012369  00000-0  74328-3 0  9997,2 53719  53.2105 251.3857 0001769  94.0886 266.0310 15.11251987 23960,6910.518,95.285,533.605,531.16,0.0
53719.0,STARLINK-4644,PAYLOAD,2023-02-05 13:57:42,15.11266852,0.0001777,53.2101,248.7034,93.2596,266.86,0.00069375,0.00011529,0.0,0 STARLINK-4644,1 53719U 22107V   23036.58174762  .00011529  00000-0  69375-3 0  9992,2 53719  53.2101 248.7034 0001777  93.2596 266.8600 15.11266852 24521,6910.472,95.284,533.565,531.109,0.0
53719.0,STARLINK-4644,PAYLOAD,2023-02-05 20:18:38,15.11273957,0.0001756,53.2103,247.5114,92.2543,267.8651,0.0007209,0.00011995,0.0,0 STARLINK-4644,1 53719U 22107V   23036.84628070  .00011995  00000-0  72090-3 0  9992,2 53719  53.2103 247.5114 0001756  92.2543 267.8651 15.11273957 24562,6910.451,95.284,533.529,531.102,0.0
53719.0,STARLINK-4644,PAYLOAD,2023-02-06 13:46:12,15.1125972,0.0001855,53.2097,244.2325,94.5774,265.5431,9.4042e-05,1.305e-05,0.0,0 STARLINK-4644,1 53719U 22107V   23037.57375480  .00001305  00000-0  94042-4 0  9993,2 53719  53.2097 244.2325 0001855  94.5774 265.5431 15.11259720 24678,6910.494,95.285,533.641,531.077,0.0
53719.0,STARLINK-4644,PAYLOAD,2023-02-06 20:07:08,15.11262831,0.0001841,53.2105,243.0403,96.2825,263.8377,0.00016429,2.501e-05,0.0,0 STARLINK-4644,1 53719U 22107V   23037.83829033  .00002501  00000-0  16429-3 0  9991,2 53719  53.2105 243.0403 0001841  96.2825 263.8377 15.11262831 24243,6910.485,95.285,533.622,531.077,0.0
53719.0,STARLINK-4644,PAYLOAD,2023-02-06 23:17:36,15.11265386,0.0001805,53.2109,242.4444,95.5548,264.5651,0.00019564,3.035e-05,0.0,0 STARLINK-4644,1 53719U 22107V   23037.97055736  .00003035  00000-0  19564-3 0  9993,2 53719  53.2109 242.4444 0001805  95.5548 264.5651 15.11265386 24734,6910.477,95.284,533.589,531.095,0.0
53719.0,STARLINK-4644,PAYLOAD,2023-02-07 19:55:36,15.11287255,0.0001723,53.2103,238.57,94.8538,265.2652,0.00047544,7.809e-05,0.0,0 STARLINK-4644,1 53719U 22107V   23038.83028276  .00007809  00000-0  47544-3 0  9990,2 53719  53.2103 238.5700 0001723  94.8538 265.2652 15.11287255 24399,6910.41,95.283,533.466,531.085,0.0
53719.0,STARLINK-4644,PAYLOAD,2023-02-08 13:23:07,15.11317589,0.0001654,53.2114,235.29,95.0312,265.087,0.00084032,0.00014052,0.0,0 STARLINK-4644,1 53719U 22107V   23039.55773067  .00014052  00000-0  84032-3 0  9996,2 53719  53.2114 235.2900 0001654  95.0312 265.0870 15.11317589 24500,6910.318,95.281,533.326,531.04,0.0
53719.0,STARLINK-4644,PAYLOAD,2023-02-08 19:44:02,15.11335741,0.0001666,53.2116,234.098,94.3705,265.7478,0.0011153,0.00018769,0.0,0 STARLINK-4644,1 53719U 22107V   23039.82225296  .00018769  00000-0  11153-2 0  9994,2 53719  53.2116 234.0980 0001666  94.3705 265.7478 15.11335741 25016,6910.262,95.28,533.279,530.976,0.0
53719.0,STARLINK-4644,PAYLOAD,2023-02-09 05:15:24,15.1135175,0.0001627,53.2115,232.3095,93.9139,266.204,0.0011414,0.00019225,0.0,0 STARLINK-4644,1 53719U 22107V   23040.21903338  .00019225  00000-0  11414-2 0  9997,2 53719  53.2115 232.3095 0001627  93.9139 266.2040 15.11351750 24609,6910.214,95.279,533.203,530.954,0.0
53719.0,STARLINK-4644,PAYLOAD,2023-02-09 19:32:26,15.11375151,0.0001603,53.2115,229.6276,95.7675,264.3501,0.001159,0.0001954,0.0,0 STARLINK-4644,1 53719U 22107V   23040.81419665  .00019540  00000-0  11590-2 0  9993,2 53719  53.2115 229.6276 0001603  95.7675 264.3501 15.11375151 25162,6910.142,95.277,533.115,530.9,0.0
53719.0,STARLINK-4644,PAYLOAD,2023-02-09 22:42:53,15.11380342,0.0001592,53.2115,229.0315,95.8103,264.3072,0.0011686,0.00019707,0.0,0 STARLINK-4644,1 53719U 22107V   23040.94645404  .00019707  00000-0  11686-2 0  9990,2 53719  53.2115 229.0315 0001592  95.8103 264.3072 15.11380342 25187,6910.126,95.277,533.092,530.891,0.0
53719.0,STARLINK-4644,PAYLOAD,2023-02-10 16:10:21,15.11397234,0.0001577,53.2116,225.7527,95.7286,264.3887,0.00086119,0.00014442,0.0,0 STARLINK-4644,1 53719U 22107V   23041.67386474  .00014442  00000-0  86119-3 0  9995,2 53719  53.2116 225.7527 0001577  95.7286 264.3887 15.11397234 25294,6910.075,95.276,533.03,530.85,0.0
53719.0,STARLINK-4644,PAYLOAD,2023-02-11 04:52:09,15.11406504,0.0001542,53.2115,223.3681,96.1147,264.0022,0.00076378,0.00012775,0.0,0 STARLINK-4644,1 53719U 22107V   23042.20288660  .00012775  00000-0  76378-3 0  9996,2 53719  53.2115 223.3681 0001542  96.1147 264.0022 15.11406504 24907,6910.047,95.275,532.977,530.846,0.0
53719.0,STARLINK-4644,PAYLOAD,2023-02-12 04:40:30,15.11420449,0.0001505,53.2114,218.8971,96.6944,263.4221,0.0005343,8.846e-05,0.0,0 STARLINK-4644,1 53719U 22107V   23043.19479352  .00008846  00000-0  53430-3 0  9993,2 53719  53.2114 218.8971 0001505  96.6944 263.4221 15.11420449 25051,6910.004,95.275,532.909,530.829,0.0
53719.0,STARLINK-4644,PAYLOAD,2023-02-13 04:28:49,15.11460767,0.0001454,53.2115,214.4258,95.989,264.1269,0.001091,0.00018417,0.0,0 STARLINK-4644,1 53719U 22107V   23044.18668033  .00018417  00000-0  10910-2 0  9999,2 53719  53.2115 214.4258 0001454  95.9890 264.1269 15.11460767 25201,6909.881,95.272,532.751,530.742,0.0
53719.0,STARLINK-4644,PAYLOAD,2023-02-13 10:49:41,15.11473207,0.0001444,53.2115,213.2334,95.8246,264.2912,0.0011589,0.00019592,0.0,0 STARLINK-4644,1 53719U 22107V   23044.45117867  .00019592  00000-0  11589-2 0  9991,2 53719  53.2115 213.2334 0001444  95.8246 264.2912 15.11473207 25711,6909.843,95.271,532.706,530.711,0.0
53719.0,STARLINK-4644,PAYLOAD,2023-02-13 17:10:34,15.11487277,0.0001407,53.2111,212.0419,95.3904,264.725,0.0011951,0.00020223,0.0,0 STARLINK-4644,1 53719U 22107V   23044.71567381  .00020223  00000-0  11951-2 0  9996,2 53719  53.2111 212.0419 0001407  95.3904 264.7250 15.11487277 25287,6909.801,95.27,532.638,530.693,0.0
